{
    "links": {
        "self": "http://www.neowsapp.com/rest/v1/neo/3550613?api_key=iIulBulltgU6a56xZRHN4H3l9WmuAYTsLGpBGhQ2"
    },
    "id": "3550613",
    "neo_reference_id": "3550613",
    "name": "(2010 VU21)",
    "designation": "2010 VU21",
    "nasa_jpl_url": "http://ssd.jpl.nasa.gov/sbdb.cgi?sstr=3550613",
    "absolute_magnitude_h": 24.9,
    "estimated_diameter": {
        "kilometers": {
            "estimated_diameter_min": 0.0278326768,
            "estimated_diameter_max": 0.0622357573
        },
        "meters": {
            "estimated_diameter_min": 27.8326768072,
            "estimated_diameter_max": 62.2357573367
        },
        "miles": {
            "estimated_diameter_min": 0.0172944182,
            "estimated_diameter_max": 0.0386714948
        },
        "feet": {
            "estimated_diameter_min": 91.3145593761,
            "estimated_diameter_max": 204.1855621004
        }
    },
    "is_potentially_hazardous_asteroid": false,
    "close_approach_data": [
        {
            "close_approach_date": "1920-11-12",
            "close_approach_date_full": "1920-Nov-12 11:57",
            "epoch_date_close_approach": -1550577780000,
            "relative_velocity": {
                "kilometers_per_second": "21.3310570397",
                "kilometers_per_hour": "76791.8053430489",
                "miles_per_hour": "47715.441492185"
            },
            "miss_distance": {
                "astronomical": "0.0162157349",
                "lunar": "6.3079208761",
                "kilometers": "2425839.401524663",
                "miles": "1507346.7075118294"
            },
            "orbiting_body": "Earth"
        },
        {
            "close_approach_date": "2010-11-13",
            "close_approach_date_full": "2010-Nov-13 23:47",
            "epoch_date_close_approach": 1289692020000,
            "relative_velocity": {
                "kilometers_per_second": "21.0473976556",
                "kilometers_per_hour": "75770.6315599858",
                "miles_per_hour": "47080.9238157034"
            },
            "miss_distance": {
                "astronomical": "0.0231932911",
                "lunar": "9.0221902379",
                "kilometers": "3469666.946849957",
                "miles": "2155951.0679931266"
            },
            "orbiting_body": "Earth"
        },
        {
            "close_approach_date": "2010-12-22",
            "close_approach_date_full": "2010-Dec-22 06:35",
            "epoch_date_close_approach": 1292999700000,
            "relative_velocity": {
                "kilometers_per_second": "15.5253127223",
                "kilometers_per_hour": "55891.1258004438",
                "miles_per_hour": "34728.5720286146"
            },
            "miss_distance": {
                "astronomical": "0.1484403792",
                "lunar": "57.7433075088",
                "kilometers": "22206364.550312304",
                "miles": "13798395.0914816352"
            },
            "orbiting_body": "Venus"
        }
    ],
    "orbital_data": {
        "orbit_id": "11",
        "orbit_determination_date": "2017-04-06 08:55:52",
        "first_observation_date": "2010-11-03",
        "last_observation_date": "2010-11-12",
        "data_arc_in_days": 9,
        "observations_used": 38,
        "orbit_uncertainty": "8",
        "minimum_orbit_intersection": ".0212473",
        "jupiter_tisserand_invariant": "3.330",
        "epoch_osculation": "2455508.5",
        "eccentricity": ".7242249798981667",
        "semi_major_axis": "2.122241472132508",
        "inclination": "4.604162616993267",
        "ascending_node_longitude": "214.611353044487",
        "orbital_period": "1129.25136072029",
        "perihelion_distance": ".5852611846382867",
        "perihelion_argument": "285.1085354810344",
        "aphelion_distance": "3.659221759626729",
        "perihelion_time": "2455560.082799697529",
        "mean_anomaly": "343.5556470976792",
        "mean_motion": ".3187952766958588",
        "equinox": "J2000",
        "orbit_class": {
            "orbit_class_type": "APO",
            "orbit_class_description": "Near-Earth asteroid orbits which cross the Earth’s orbit similar to that of 1862 Apollo",
            "orbit_class_range": "a (semi-major axis) > 1.0 AU; q (perihelion) < 1.017 AU"
        }
    },
    "is_sentry_object": false
}